{"type": "FeatureCollection", "features": [{"type": "Feature", "properties": {"norad_id": 50032, "name": "COSMOS 1408 DEB", "group": "cosmos-1408-debris", "lat": 4.84024447730261, "lon": 61.02272996329654, "alt_km": 440.71638799426455, "timestamp": "2025-12-10T21:43:22.358389+00:00", "meta": {"OBJECT_NAME": "COSMOS 1408 DEB", "OBJECT_ID": "1982-092RU", "EPOCH": "2025-12-10T12:22:45.329088", "MEAN_MOTION": 15.45657785, "ECCENTRICITY": 0.00150731, "INCLINATION": 82.5641, "RA_OF_ASC_NODE": 60.788, "ARG_OF_PERICENTER": 217.1445, "MEAN_ANOMALY": 142.8762, "EPHEMERIS_TYPE": 0, "CLASSIFICATION_TYPE": "U", "NORAD_CAT_ID": 50032, "ELEMENT_SET_NO": 999, "REV_AT_EPOCH": 22569, "BSTAR": 0.00015993678, "MEAN_MOTION_DOT": 7.781e-05, "MEAN_MOTION_DDOT": 0}, "tle": {"line1": "1 50032U 82092RU  25344.51580242  .00007781  00000+0  15994-3 0  9999", "line2": "2 50032  82.5641  60.7880 0015073 217.1445 142.8762 15.45657785225694"}}, "geometry": {"type": "Point", "coordinates": [61.02272996329654, 4.84024447730261]}}, {"type": "Feature", "properties": {"norad_id": 50058, "name": "COSMOS 1408 DEB", "group": "cosmos-1408-debris", "lat": 81.45166289844803, "lon": 130.93645982083427, "alt_km": 358.3791633782048, "timestamp": "2025-12-10T21:43:22.358409+00:00", "meta": {"OBJECT_NAME": "COSMOS 1408 DEB", "OBJECT_ID": "1982-092SW", "EPOCH": "2025-12-10T07:32:15.069120", "MEAN_MOTION": 15.63871955, "ECCENTRICITY": 0.001649, "INCLINATION": 82.6126, "RA_OF_ASC_NODE": 71.8794, "ARG_OF_PERICENTER": 107.0459, "MEAN_ANOMALY": 253.2608, "EPHEMERIS_TYPE": 0, "CLASSIFICATION_TYPE": "U", "NORAD_CAT_ID": 50058, "ELEMENT_SET_NO": 999, "REV_AT_EPOCH": 22766, "BSTAR": 0.00047418, "MEAN_MOTION_DOT": 0.00044963, "MEAN_MOTION_DDOT": 0}, "tle": {"line1": "1 50058U 82092SW  25344.31406330  .00044963  00000+0  47418-3 0  9999", "line2": "2 50058  82.6126  71.8794 0016490 107.0459 253.2608 15.63871955227666"}}, "geometry": {"type": "Point", "coordinates": [130.93645982083427, 81.45166289844803]}}, {"type": "Feature", "properties": {"norad_id": 50404, "name": "COSMOS 1408 DEB", "group": "cosmos-1408-debris", "lat": 12.585393719225152, "lon": 35.1583249039466, "alt_km": 432.5911536229805, "timestamp": "2025-12-10T21:43:22.358422+00:00", "meta": {"OBJECT_NAME": "COSMOS 1408 DEB", "OBJECT_ID": "1982-092ADS", "EPOCH": "2025-12-10T01:55:59.645280", "MEAN_MOTION": 15.13181066, "ECCENTRICITY": 0.01731067, "INCLINATION": 82.2033, "RA_OF_ASC_NODE": 217.7549, "ARG_OF_PERICENTER": 208.0507, "MEAN_ANOMALY": 151.1318, "EPHEMERIS_TYPE": 0, "CLASSIFICATION_TYPE": "U", "NORAD_CAT_ID": 50404, "ELEMENT_SET_NO": 999, "REV_AT_EPOCH": 21153, "BSTAR": 0.0036852181, "MEAN_MOTION_DOT": 0.00095791, "MEAN_MOTION_DDOT": 0}, "tle": {"line1": "1 50404U 82092ADS 25344.08055145  .00095791  00000+0  36852-2 0  9996", "line2": "2 50404  82.2033 217.7549 0173106 208.0507 151.1318 15.13181066211532"}}, "geometry": {"type": "Point", "coordinates": [35.1583249039466, 12.585393719225152]}}, {"type": "Feature", "properties": {"norad_id": 50621, "name": "COSMOS 1408 DEB", "group": "cosmos-1408-debris", "lat": 28.618981556197554, "lon": -107.99329165956046, "alt_km": 377.24845685490436, "timestamp": "2025-12-10T21:43:22.358434+00:00", "meta": {"OBJECT_NAME": "COSMOS 1408 DEB", "OBJECT_ID": "1982-092ALR", "EPOCH": "2025-12-10T07:11:23.446752", "MEAN_MOTION": 15.564597, "ECCENTRICITY": 0.00288412, "INCLINATION": 82.5698, "RA_OF_ASC_NODE": 76.7205, "ARG_OF_PERICENTER": 161.3855, "MEAN_ANOMALY": 198.8462, "EPHEMERIS_TYPE": 0, "CLASSIFICATION_TYPE": "U", "NORAD_CAT_ID": 50621, "ELEMENT_SET_NO": 999, "REV_AT_EPOCH": 22212, "BSTAR": 0.00053677944, "MEAN_MOTION_DOT": 0.00038838, "MEAN_MOTION_DDOT": 0}, "tle": {"line1": "1 50621U 82092ALR 25344.29957693  .00038838  00000+0  53678-3 0  9994", "line2": "2 50621  82.5698  76.7205 0028841 161.3855 198.8462 15.56459700222122"}}, "geometry": {"type": "Point", "coordinates": [-107.99329165956046, 28.618981556197554]}}]}